      2.10          N: GNSS NAV DATA                        RINEX VERSION / TYPE
fic2rin                                 04/09/2021 00:17:24 PGM / RUN BY / DATE
                                                            END OF HEADER
13 21  4  8 22  0  0.0 1.175934448838e-04 4.547473508865e-12 0.000000000000e+00
    3.500000000000e+01-2.506250000000e+01 3.879090151104e-09 3.006100820828e+00
   -1.272186636925e-06 4.907694645226e-03 1.257658004761e-05 5.153688350677e+03
    4.248000000000e+05 3.911554813385e-08-3.460650847141e-01 5.215406417847e-08
    9.684588094996e-01 1.400000000000e+02 9.942826183306e-01-7.600316583693e-09
    7.178870457341e-11 1.000000000000e+00 2.152000000000e+03 0.000000000000e+00
    2.400000000000e+00 0.000000000000e+00-1.117587089539e-08 3.500000000000e+01
    4.176000000000e+05 4.000000000000e+00
17 21  4  8 22  0  0.0 4.232455976307e-04 6.139089236967e-12 0.000000000000e+00
    2.000000000000e+01 1.109375000000e+01 3.880161624306e-09-2.707994327885e+00
    6.724148988724e-07 1.336561550852e-02 1.137331128120e-05 5.153580204010e+03
    4.248000000000e+05 1.937150955200e-07 2.724728121143e+00 1.303851604462e-07
    9.826551186843e-01 1.689687500000e+02-1.570359974905e+00-7.425666451671e-09
   -9.000374901741e-11 1.000000000000e+00 2.152000000000e+03 0.000000000000e+00
    2.400000000000e+00 0.000000000000e+00-1.117587089539e-08 2.000000000000e+01
    4.176000000000e+05 4.000000000000e+00
12 21  4  8 22  0  0.0-2.519413828850e-05-5.115907697473e-12 0.000000000000e+00
    8.700000000000e+01-2.818750000000e+01 4.648765068296e-09 9.004324561118e-02
   -1.691281795502e-06 8.489599917084e-03 5.558133125305e-06 5.153756057739e+03
    4.248000000000e+05-6.705522537231e-08 1.688761053619e+00 9.685754776001e-08
    9.738392861437e-01 2.837812500000e+02 1.196021280207e+00-8.293559745767e-09
   -2.882262914962e-10 1.000000000000e+00 2.152000000000e+03 0.000000000000e+00
    2.400000000000e+00 0.000000000000e+00-1.257285475731e-08 8.700000000000e+01
    4.176000000000e+05 4.000000000000e+00
16 21  4  8 22  0  0.0-3.066821955144e-04-5.911715561524e-12 0.000000000000e+00
    7.900000000000e+01-3.946875000000e+01 4.550546691392e-09-1.764808234272e+00
   -2.246350049973e-06 1.226586883422e-02 4.563480615616e-06 5.153671337128e+03
    4.248000000000e+05 1.359730958939e-07 1.707539576254e+00-1.303851604462e-07
    9.739380521320e-01 2.914062500000e+02 6.705079827431e-01-8.082122367123e-09
   -1.164334213479e-10 1.000000000000e+00 2.152000000000e+03 0.000000000000e+00
    2.400000000000e+00 0.000000000000e+00-1.024454832077e-08 7.900000000000e+01
    4.176000000000e+05 4.000000000000e+00
10 21  4  8 22  0  0.0-9.801844134927e-05-7.844391802792e-12 0.000000000000e+00
    6.100000000000e+01-5.634375000000e+01 4.689123892260e-09-6.383846789643e-01
   -3.082677721977e-06 6.580693763681e-03 3.466382622719e-06 5.153668708801e+03
    4.248000000000e+05 1.303851604462e-07-1.526983905260e+00 1.303851604462e-07
    9.683103028337e-01 3.169062500000e+02-2.564504205574e+00-8.431065473433e-09
   -3.821587755898e-10 1.000000000000e+00 2.152000000000e+03 0.000000000000e+00
    2.400000000000e+00 0.000000000000e+00 2.328306436539e-09 6.100000000000e+01
    4.176000000000e+05 4.000000000000e+00
 9 21  4  8 22  0  0.0-3.374810330570e-04-2.842170943040e-12 0.000000000000e+00
    5.800000000000e+01-4.675000000000e+01 4.373396455231e-09-2.206653144761e+00
   -2.497807145119e-06 1.912161591463e-03 1.148134469986e-05 5.153814889908e+03
    4.248000000000e+05 6.705522537231e-08-4.938861979426e-01 2.980232238770e-08
    9.535157128196e-01 1.553437500000e+02 1.836785825525e+00-7.909972339241e-09
   -1.917937032633e-10 1.000000000000e+00 2.152000000000e+03 0.000000000000e+00
    2.400000000000e+00 0.000000000000e+00 1.396983861923e-09 5.800000000000e+01
    4.176000000000e+05 4.000000000000e+00
 8 21  4  8 22  0  0.0-1.678988337517e-05-1.364242052659e-12 0.000000000000e+00
    4.200000000000e+01-1.296875000000e+01 4.234104938895e-09-2.646412138877e+00
   -6.668269634247e-07 6.336132413708e-03 1.161172986031e-05 5.153585006714e+03
    4.248000000000e+05-1.359730958939e-07 2.647506296270e+00-4.470348358154e-08
    9.678794017763e-01 1.624687500000e+02 2.235715819109e-02-7.756037355802e-09
   -1.971510692762e-10 1.000000000000e+00 2.152000000000e+03 0.000000000000e+00
    2.400000000000e+00 0.000000000000e+00 5.122274160385e-09 4.200000000000e+01
    4.176000000000e+05 4.000000000000e+00
 7 21  4  8 22  0  0.0 1.160907559097e-04 1.170974428533e-11 0.000000000000e+00
    2.900000000000e+01 7.012500000000e+01 4.817700676571e-09 8.297542550296e-01
    3.749504685402e-06 1.471176533960e-02 7.614493370056e-06 5.153590391159e+03
    4.248000000000e+05-2.142041921616e-07 5.783596009417e-01 1.415610313416e-07
    9.521321141586e-01 2.298750000000e+02-2.343099907539e+00-8.412850428989e-09
    3.271564845236e-10 1.000000000000e+00 2.152000000000e+03 0.000000000000e+00
    2.400000000000e+00 0.000000000000e+00-1.117587089539e-08 2.900000000000e+01
    4.176000000000e+05 4.000000000000e+00
31 21  4  8 22  0  0.0-1.104543916881e-04-2.273736754432e-12 0.000000000000e+00
    5.200000000000e+01 6.006250000000e+01 4.678052002500e-09 2.805818490974e-01
    3.321096301079e-06 9.938189177774e-03 7.648020982742e-06 5.153764368057e+03
    4.248000000000e+05 1.508742570877e-07 5.952131633031e-01 8.009374141693e-08
    9.564470729568e-01 2.288437500000e+02 2.570970575587e-01-8.271415966247e-09
    5.293077620786e-10 1.000000000000e+00 2.152000000000e+03 0.000000000000e+00
    2.400000000000e+00 0.000000000000e+00-1.303851604462e-08 5.200000000000e+01
    4.176000000000e+05 4.000000000000e+00
27 21  4  8 22  0  0.0-1.092087477446e-04-6.934897101019e-12 0.000000000000e+00
    5.500000000000e+01-1.631250000000e+01 4.028024926263e-09-2.696757032378e+00
   -9.983777999878e-07 9.352385182865e-03 1.173093914986e-05 5.153683774948e+03
    4.248000000000e+05-1.862645149231e-09 2.664348147972e+00-2.123415470123e-07
    9.764547349734e-01 1.618125000000e+02 6.015696579280e-01-7.630674991099e-09
   -1.600066649198e-10 1.000000000000e+00 2.152000000000e+03 0.000000000000e+00
    2.400000000000e+00 0.000000000000e+00 1.862645149231e-09 5.500000000000e+01
    4.176000000000e+05 4.000000000000e+00
30 21  4  8 22  0  0.0-4.101404920220e-04-5.343281372916e-12 0.000000000000e+00
    7.400000000000e+01 6.931250000000e+01 5.129499378524e-09 7.017432411199e-01
    3.678724169731e-06 5.058229085989e-03 6.744638085365e-06 5.153721622467e+03
    4.248000000000e+05 1.117587089539e-08 5.962469519188e-01 1.750886440277e-07
    9.373432222105e-01 2.370937500000e+02-2.817870922972e+00-8.429279684762e-09
    4.685909472653e-10 1.000000000000e+00 2.152000000000e+03 0.000000000000e+00
    2.400000000000e+00 0.000000000000e+00 3.725290298462e-09 7.400000000000e+01
    4.176000000000e+05 4.000000000000e+00
22 21  4  8 22  0  0.0-6.423336453736e-04 8.640199666843e-12 0.000000000000e+00
    6.600000000000e+01-4.131250000000e+01 5.433440610325e-09 2.612455078989e+00
   -2.123415470123e-06 7.065469049849e-03 2.549961209297e-06 5.153565093994e+03
    4.248000000000e+05 1.285225152969e-07-1.621887950738e+00 5.587935447693e-08
    9.339219512894e-01 3.139062500000e+02-1.003116476948e+00-8.644645798482e-09
   -2.596536727606e-10 1.000000000000e+00 2.152000000000e+03 0.000000000000e+00
    2.400000000000e+00 0.000000000000e+00-1.816079020500e-08 6.600000000000e+01
    4.176000000000e+05 4.000000000000e+00
32 21  4  8 22  0  0.0 2.205884084105e-05 1.136868377216e-13 0.000000000000e+00
    9.900000000000e+01-6.053125000000e+01 4.165173496195e-09-1.953644222015e+00
   -3.078952431679e-06 4.832298145629e-03 1.168809831142e-05 5.153664218903e+03
    4.248000000000e+05 3.725290298462e-09-4.840632355425e-01-1.415610313416e-07
    9.575182493699e-01 1.541562500000e+02-2.393777230156e+00-7.736393680421e-09
   -9.964700784071e-11 1.000000000000e+00 2.152000000000e+03 0.000000000000e+00
    2.400000000000e+00 0.000000000000e+00 4.656612873077e-10 9.900000000000e+01
    4.176000000000e+05 4.000000000000e+00
21 21  4  8 22  0  0.0 1.095323823392e-04 2.842170943040e-12 0.000000000000e+00
    5.700000000000e+01 9.096875000000e+01 4.535546066556e-09-2.502723979882e+00
    4.950910806656e-06 2.418726671021e-02 6.748363375664e-06 5.153706392288e+03
    4.248000000000e+05 7.636845111847e-08-2.644667544699e+00 3.390014171600e-07
    9.568646673113e-01 2.421250000000e+02-1.157683384857e+00-7.782824185867e-09
    4.289464387695e-10 1.000000000000e+00 2.152000000000e+03 0.000000000000e+00
    2.400000000000e+00 0.000000000000e+00-1.024454832077e-08 5.700000000000e+01
    4.176000000000e+05 4.000000000000e+00
25 21  4  8 22  0  0.0 1.148530282080e-04 7.275957614183e-12 0.000000000000e+00
    9.000000000000e+01-2.500000000000e+01 5.026637951076e-09-2.301727729913e-01
   -1.240521669388e-06 9.937007329427e-03 4.917383193970e-06 5.153636482239e+03
    4.248000000000e+05 2.421438694000e-08 1.615836007861e+00 1.396983861923e-07
    9.611863335889e-01 2.907500000000e+02 9.599562784207e-01-8.523212168855e-09
   -2.042942239602e-10 1.000000000000e+00 2.152000000000e+03 0.000000000000e+00
    2.400000000000e+00 0.000000000000e+00 5.587935447693e-09 9.000000000000e+01
    4.176000000000e+05 4.000000000000e+00
26 21  4  8 22  0  0.0 6.950926035643e-05 5.229594535194e-12 0.000000000000e+00
    7.300000000000e+01-2.425000000000e+01 5.363437694423e-09-9.122372687439e-01
   -1.236796379089e-06 5.798557074741e-03 3.691762685776e-06 5.153778142929e+03
    4.248000000000e+05 1.229345798492e-07 1.574637292821e+00-5.215406417847e-08
    9.421401774058e-01 2.934375000000e+02 3.015644816454e-01-8.638931274735e-09
   -1.282196265764e-10 1.000000000000e+00 2.152000000000e+03 0.000000000000e+00
    2.400000000000e+00 0.000000000000e+00 6.984919309616e-09 7.300000000000e+01
    4.176000000000e+05 4.000000000000e+00
